[{"OBJECT_NAME":"STARLINK-35660","OBJECT_ID":"2025-293A","EPOCH":"2026-03-09T11:52:20.599968","MEAN_MOTION":14.98333771,"ECCENTRICITY":0.0003498,"INCLINATION":70.0002,"RA_OF_ASC_NODE":95.1494,"ARG_OF_PERICENTER":266.2084,"MEAN_ANOMALY":93.8675,"EPHEMERIS_TYPE":0,"CLASSIFICATION_TYPE":"U","NORAD_CAT_ID":67003,"ELEMENT_SET_NO":999,"REV_AT_EPOCH":1485,"BSTAR":0.00016551184,"MEAN_MOTION_DOT":1.883e-5,"MEAN_MOTION_DDOT":0},{"OBJECT_NAME":"OBJECT F","OBJECT_ID":"2025-026F","EPOCH":"2026-03-09T16:35:22.568352","MEAN_MOTION":14.96835273,"ECCENTRICITY":0.001234,"INCLINATION":81.996,"RA_OF_ASC_NODE":175.2789,"ARG_OF_PERICENTER":38.1083,"MEAN_ANOMALY":322.1008,"EPHEMERIS_TYPE":0,"CLASSIFICATION_TYPE":"U","NORAD_CAT_ID":63330,"ELEMENT_SET_NO":999,"REV_AT_EPOCH":5316,"BSTAR":0.00045702,"MEAN_MOTION_DOT":5.266e-5,"MEAN_MOTION_DDOT":0}]
